[{"OBJECT_NAME":"JILIN-1 GAOFEN 03D47","OBJECT_ID":"2022-167L","EPOCH":"2026-03-09T22:56:46.924224","MEAN_MOTION":15.31686941,"ECCENTRICITY":0.00089304,"INCLINATION":97.6835,"RA_OF_ASC_NODE":234.6581,"ARG_OF_PERICENTER":110.4031,"MEAN_ANOMALY":249.8169,"EPHEMERIS_TYPE":0,"CLASSIFICATION_TYPE":"U","NORAD_CAT_ID":54692,"ELEMENT_SET_NO":999,"REV_AT_EPOCH":18014,"BSTAR":0.00047294748,"MEAN_MOTION_DOT":0.00014417,"MEAN_MOTION_DDOT":0},{"OBJECT_NAME":"STARLINK-35307","OBJECT_ID":"2025-232J","EPOCH":"2026-03-09T11:39:48.211488","MEAN_MOTION":15.30196168,"ECCENTRICITY":0.00015414,"INCLINATION":53.1598,"RA_OF_ASC_NODE":104.9099,"ARG_OF_PERICENTER":83.6196,"MEAN_ANOMALY":276.4981,"EPHEMERIS_TYPE":0,"CLASSIFICATION_TYPE":"U","NORAD_CAT_ID":66013,"ELEMENT_SET_NO":999,"REV_AT_EPOCH":2340,"BSTAR":0.00068360071,"MEAN_MOTION_DOT":0.00019939,"MEAN_MOTION_DDOT":0}]
